{
    "type" : "FeatureCollection",
    "features" : [ {
        "type" : "Feature",
        "id" : "CHE",
        "properties" : {
            "name" : "Switzerland"
        },
        "geometry" : {
            "type" : "Polygon",
            "coordinates" : [ [ [ 9.594226, 47.525058 ], [ 9.632932, 47.347601 ], [ 9.47997, 47.10281 ], [ 9.932448, 46.920728 ], [ 10.442701, 46.893546 ], [ 10.363378, 46.483571 ], [ 9.922837, 46.314899 ], [ 9.182882, 46.440215 ], [ 8.966306, 46.036932 ], [ 8.489952, 46.005151 ], [ 8.31663, 46.163642 ], [ 7.755992, 45.82449 ], [ 7.273851, 45.776948 ], [ 6.843593, 45.991147 ], [ 6.5001, 46.429673 ], [ 6.022609, 46.27299 ], [ 6.037389, 46.725779 ], [ 6.768714, 47.287708 ], [ 6.736571, 47.541801 ], [ 7.192202, 47.449766 ], [ 7.466759, 47.620582 ], [ 8.317301, 47.61358 ], [ 8.522612, 47.830828 ], [ 9.594226, 47.525058 ] ] ]
        }
    },
		{
        "type" : "Feature",
        "id" : "LSNE",
        "properties" : {
            "name" : "Lausanne",
						"population" : 50000
        },
        "geometry" : {
            "type" : "Point",
            "coordinates" : [ 6.6339863, 46.5193823 ]
        }
    },
		{
		    "type" : "Feature",
		    "id" : "m1",
		    "properties" : {
		        "name" : "Genova",
						"population" : 500000
		    },
		    "geometry" : {
		        "type" : "Point",
		        "coordinates" : [ 8.9327, 44.4004 ]
		    }
		},
		
		{
		    "type" : "Feature",
		    "id" : "m2",
		    "properties" : {
		        "name" : "Zurih",
						"population" : 2000000
		    },
		    "geometry" : {
		        "type" : "Point",
		        "coordinates" : [ 8.534, 47.3809 ]
		    }
		},
		
		{
		    "type" : "Feature",
		    "id" : "l1",
		    "properties" : {
		        "name" : "Test line1"
		    },
		    "geometry" : {
		        "type" : "LineString",
		        "coordinates" : [
							[4.8, 46.7],
							[4.9, 45.4],
							[2.3, 46.4]
						]
		    }
		}
		
		
		
		
		
		
		
		
		
		
		
		
		 ]
}